CALSPHERE 1             
1 00900U 64063C   23172.59543726  .00000683  00000+0  71254-3 0  9992
2 00900  90.1894  47.9481 0027149 356.2084  67.1232 13.74355644921359
CALSPHERE 2             
1 00902U 64063E   23172.43187936  .00000085  00000+0  11472-3 0  9996
2 00902  90.2044  51.2928 0019245 151.2133  22.3852 13.52753444708652
LCS 1                   
1 01361U 65034C   23172.49725566  .00000022  00000+0  18447-2 0  9997
2 01361  32.1393 249.0715 0007552 113.9027 246.2262  9.89303356101770
TEMPSAT 1               
1 01512U 65065E   23172.57947963  .00000047  00000+0  73584-4 0  9997
2 01512  89.9330 215.9723 0071887  74.5549  40.4324 13.33480183814562
CALSPHERE 4A            
1 01520U 65065H   23172.62334541  .00000108  00000+0  19149-3 0  9998
2 01520  89.9701 129.5169 0067315 304.0349 231.4448 13.35970596816944
OPS 5712 (P/L 160)      
1 02826U 67053A   23172.52662931  .00005234  00000+0  12561-2 0  9998
2 02826  69.9267 141.3960 0006595 210.5822 149.4930 14.53924765906302
OPS 5712 (P/L 153)      
1 02874U 67053H   23172.60239421  .00000049  00000+0  74062-4 0  9999
2 02874  69.9744 294.4059 0007561 193.1265 166.9645 13.96485546854365
SURCAL 150B             
1 02909U 67053J   23172.58652133  .00009629  00000+0  16181-2 0  9993
2 02909  69.9454 111.2896 0005736 228.8006 131.2644 14.69860640917725
RIGIDSPHERE 2 (LCS 4)   
1 05398U 71067E   23172.55840339  .00000908  00000+0  30758-3 0  9990
2 05398  87.6201 281.0541 0060448 246.1934 113.2919 14.34864617717176
COSMOS 2493 (SKRL-756 1)
1 39490U 13078A   23172.55883367  .00002450  00000+0  24282-3 0  9995
2 39490  82.4174 240.0017 0014930 313.5337  46.4640 14.91364109514663
COSMOS 2494 (SKRL-756 2)
1 39491U 13078B   23172.56304270  .00002658  00000+0  25291-3 0  9999
2 39491  82.4171 232.9380 0018953 283.5709  76.3400 14.92962196515288
